C/2022 U1 (Leonard),e,128.1494,72.5259,78.6073,102071,0.0000000,0.99995883,0.0000,03/26.0386/2024,2000,g  8.5,4.0
# From MPEC 2023-VM5
C/2022 U2 (ATLAS),e,48.2478,304.4167,147.9846,97.86019,0.0010181,0.98642003,0.0000,01/14.2794/2023,2000,g 16.0,4.0
# From MPEC 2025-AH4
C/2022 U3 (Bok),h,07/28.6483/2024,33.6611,272.7873,189.1257,1.000750,4.826533,2000,7.5,4.0
# From MPEC 2023-W26
C/2022 U4 (Bok),e,52.0492,132.9160,88.9918,2763,0.0000068,0.99895127,0.0000,08/03.6218/2023,2000,g 10.5,4.0
# From MPEC 2024-H50
C/2022 V2 (Lemmon),e,98.9014,332.8615,168.9492,36.66845,0.0044388,0.94371636,2.0335,02/02.0/2025,2000,g 12.0,4.0
# From MPEC 2023-CD7
P/2022 W1 (Rankin),e,13.4650,38.8241,17.9125,6.974540,0.0535095,0.51659116,46.5442,02/02.0/2025,2000,g 12.5,4.0
# From MPEC 2024-EF7
C/2022 W2 (ATLAS),e,63.5072,320.4414,123.3015,344.0039,0.0001545,0.99091844,0.0000,03/08.7726/2023,2000,g 11.5,4.0
# From MPEC 2024-C04
C/2022 W3 (Leonard),e,103.5767,132.2932,116.5213,278.5066,0.0002121,0.99498245,0.0000,06/22.7898/2023,2000,g 13.0,4.0
# From MPEC 2023-M14
C/2022 Y1 (Hogan),e,18.8555,285.8804,174.8537,12.60618,0.0220206,0.76523115,17.5589,02/02.0/2025,2000,g  9.0,4.0
# From MPEC 2023-TM6
C/2022 Y2 (Lemmon),e,165.8856,216.3538,105.4314,19.69828,0.0112736,0.87100376,7.6957,02/02.0/2025,2000,g 13.5,4.0
# From MPEC 2024-GJ3
C/2023 A1 (Leonard),e,94.7394,318.2768,159.2522,220.9715,0.0003001,0.99169400,0.0000,03/18.6283/2023,2000,g 14.5,4.0
# From MPEC 2023-J95
C/2023 A2 (SWAN),e,94.7066,94.5071,142.5139,417.1552,0.0001157,0.99773289,0.0000,01/20.3655/2023,2000,g 13.5,4.0
# From MPEC 2025-AH4
C/2023 A3 (Tsuchinshan-ATLAS),h,09/27.7415/2024,139.1110,21.5624,308.4962,1.000104,0.391470,2000,6.5,3.2
# From MPEC 2024-F34
P/2023 B1 (PANSTARRS),e,14.5887,78.5585,81.6278,7.063314,0.0525039,0.13068373,33.6807,02/02.0/2025,2000,g  5.5,4.0
# From MPEC 2023-XP6
C/2023 B2 (ATLAS),e,40.7683,218.1046,317.3600,591.1366,0.0000686,0.99705458,0.0000,03/10.5512/2023,2000,g 14.5,4.0
# From MPEC 2023-F81
P/2023 B3 (PANSTARRS),e,9.1573,153.9917,240.3485,4.549373,0.1015726,0.12260193,163.5131,02/02.0/2025,2000,g 10.5,4.0
# From MPEC 2024-YC7
C/2023 C2 (ATLAS),e,48.3211,301.0045,357.4545,2606,0.0000074,0.99909103,0.0000,11/16.8061/2024,2000,g  7.0,4.0
# From MPEC 2024-D33
C/2023 E1 (ATLAS),e,38.2804,164.5161,105.9632,19.28776,0.0116354,0.94672054,6.7725,02/02.0/2025,2000,g 15.5,4.0
# From MPEC 2023-N01
C/2023 F1 (PANSTARRS),e,131.6936,25.3076,216.7359,251.3088,0.0002474,0.99319582,0.0000,06/28.2030/2023,2000,g 16.0,4.0
# From MPEC 2024-YC7
C/2023 F3 (ATLAS),h,02/02.6281/2025,145.9637,109.4639,265.5310,1.003772,5.190795,2000,6.0,4.0
# From MPEC 2024-RQ6
C/2023 H1 (PANSTARRS),e,21.7822,292.6469,333.7592,760.0647,0.0000470,0.99414819,0.0000,11/28.6906/2024,2000,g  8.5,4.0
# From MPEC 2024-GJ3
C/2023 H2 (Lemmon),e,113.7516,217.0578,150.6732,245.6984,0.0002559,0.99635724,0.0000,10/29.1631/2023,2000,g 14.0,4.0
# From MPEC 2023-R20
C/2023 H3 (PANSTARRS),e,2.4890,55.0945,193.2783,13.61596,0.0196170,0.61572866,6.8563,02/02.0/2025,2000,g 10.0,4.0
# From MPEC 2023-SQ0
A/2023 H4,e,76.5789,230.8255,65.0167,144.4880,0.0005675,0.98530333,0.0000,08/08.8403/2023,2000,g 18.0,22.0
# From MPEC 2025-AH4
C/2023 H5 (Lemmon),h,06/30.2163/2025,97.8562,159.4794,60.0894,1.000400,4.312706,2000,7.0,4.0
# From MPEC 2024-UA9
P/2023 JN16 (Lemmon),e,3.7026,11.8760,353.1609,2.695376,0.2227282,0.14679803,7.4327,02/02.0/2025,2000,g 14.0,4.0
# From MPEC 2024-GJ3
C/2023 K1 (ATLAS),e,137.9977,223.7015,337.4294,658.0452,0.0000584,0.99690179,0.0000,09/07.6494/2023,2000,g 13.0,4.0
# From MPEC 2023-N01
P/2023 M1 (PANSTARRS),e,12.2887,216.8601,79.6980,6.842792,0.0550623,0.58694962,22.8855,02/02.0/2025,2000,g 13.5,4.0
# From MPEC 2024-TD8
P/2023 M2 (PANSTARRS),e,19.7281,83.2492,243.3262,5.575229,0.0748704,0.37000912,41.6378,02/02.0/2025,2000,g 12.5,4.0
# From MPEC 2024-TP3
P/2023 M4 (ATLAS),e,7.5921,296.2900,320.5705,5.447958,0.0775092,0.27892233,79.4455,02/02.0/2025,2000,g  7.5,4.0
# From MPEC 2024-MB8
C/2023 P1 (Nishimura),e,132.4769,66.8435,116.2721,56.64751,0.0023117,0.99603472,0.0000,09/17.6437/2023,2000,g 10.0,4.0
# From MPEC 2025-AH4
C/2023 Q1 (PANSTARRS),h,12/01.1432/2024,36.6430,7.1274,84.4177,1.005175,2.575708,2000,10.0,4.0
# From MPEC 2024-N80
C/2023 Q2 (PANSTARRS),e,104.0619,92.6798,171.7023,349.4521,0.0001509,0.99081598,0.0000,06/23.9932/2024,2000,g 11.5,4.0
# From MPEC 2025-AH4
C/2023 R1 (PANSTARRS),h,04/13.5389/2026,149.3166,62.5574,144.2795,1.002033,3.569548,2000,6.0,4.0
# From MPEC 2024-L77
C/2023 R2 (PANSTARRS),h,08/12.1507/2024,30.6888,188.9081,337.3059,1.000248,0.905146,2000,10.5,4.0
# From MPEC 2023-UR6
A/2023 R3,e,12.0830,347.3468,86.9229,703.2516,0.0000528,0.99806874,0.0000,12/18.1936/2023,2000,g 20.0,22.0
# From MPEC 2024-YC7
C/2023 RN3 (ATLAS),e,10.3527,207.0666,130.5738,10.17136,0.0303833,0.49084958,22.5933,02/02.0/2025,2000,g  7.5,4.0
# From MPEC 2025-AH4
P/2023 S1,e,9.1573,317.2899,180.2941,3.844728,0.1307392,0.31863150,357.1065,02/02.0/2025,2000,g 11.5,4.0
# From MPEC 2023-XP6
C/2023 S2 (ATLAS),e,19.7610,229.6460,78.7856,186.0956,0.0003882,0.99430454,0.0000,10/15.8951/2023,2000,g 15.0,4.0
# From MPEC 2024-P23
C/2023 S3 (Lemmon),e,140.4963,233.8305,281.5515,28.46778,0.0064889,0.97085554,0.0000,01/19.6445/2024,2000,g 16.0,4.0
# From MPEC 2024-BE0
P/2023 T1 (PANSTARRS),e,6.6123,249.5759,202.8556,4.226054,0.1134492,0.33332713,28.9465,02/02.0/2025,2000,g 14.0,4.0
# From MPEC 2024-GJ3
C/2023 T2 (Borisov),e,48.5938,317.5297,111.2072,225.4653,0.0002911,0.99114778,0.0000,12/22.7796/2023,2000,g 14.5,4.0
# From MPEC 2025-AH4
C/2023 T3 (Fuls),e,27.2220,246.0007,302.8459,812.6128,0.0000425,0.99563345,0.0000,01/25.3368/2025,2000,g  8.5,4.0
# From MPEC 2024-VB7
C/2023 TD22 (Lemmon),e,170.4899,5.5590,32.5395,48.29856,0.0029363,0.95120344,0.4073,02/02.0/2025,2000,g 12.5,4.0
# From MPEC 2025-AH4
C/2023 U1 (Fuls),e,108.1456,305.8060,255.6339,2346,0.0000087,0.99788011,0.0000,10/12.8268/2024,2000,g  8.0,4.0
# From MPEC 2024-YC7
C/2023 V1 (Lemmon),h,07/13.0328/2025,102.0138,15.0369,103.3128,1.000319,5.092564,2000,8.5,4.0
# From MPEC 2025-AH4
P/2023 V2 (PANSTARRS),e,9.8882,95.4737,330.5311,7.224502,0.0507566,0.57033482,18.4863,02/02.0/2025,2000,g 13.5,4.0
# From MPEC 2024-A43
C/2023 V3 (PANSTARRS),e,40.5989,91.3015,291.8978,13.16476,0.0206341,0.65970575,11.2464,02/02.0/2025,2000,g 11.5,4.0
# From MPEC 2024-UQ8
C/2023 V4 (Camarasa-Duszanowicz),h,05/30.3775/2024,67.1297,66.3260,50.8636,1.001087,1.121802,2000,12.0,4.0
# From MPEC 2024-GJ3
C/2023 V5 (Leonard),h,12/13.8959/2023,73.5652,31.5188,56.9643,1.009399,0.846261,2000,21.5,4.0
# From MPEC 2025-A40
P/2023 V6 (PANSTARRS),e,3.9707,189.7534,192.9763,5.305951,0.0806416,0.17610615,63.5440,02/02.0/2025,2000,g 11.5,4.0
# From MPEC 2024-GJ3
C/2023 X1 (Leonard),e,110.5874,137.0020,321.4641,156.5968,0.0005030,0.99392903,0.0000,10/18.0245/2023,2000,g 13.5,3.2
# From MPEC 2025-AH4
C/2023 X2 (Lemmon),h,12/27.8086/2025,76.9892,66.3079,64.7208,1.000599,5.089743,2000,8.5,3.2
# From MPEC 2024-A43
P/2023 X3 (PANSTARRS),e,4.4834,62.0122,40.8455,4.245597,0.1126668,0.28622978,32.2160,02/02.0/2025,2000,g 15.5,4.0
# From MPEC 2025-AH4
C/2023 X4 (Hogan),e,11.5943,28.7674,100.5759,9.918246,0.0315538,0.63117544,7.9843,02/02.0/2025,2000,g 12.0,4.0
# From MPEC 2024-DA2
C/2023 X7 (PANSTARRS),h,05/15.0613/2025,69.0652,119.2024,354.3776,1.002754,4.820424,2000,9.0,4.0
# From MPEC 2024-JU4
P/2023 Y1 (Gibbs),e,6.3842,78.8557,51.4624,3.749739,0.1357383,0.44531826,58.3865,02/02.0/2025,2000,g 17.0,4.0
# From MPEC 2025-A40
P/2023 Y2 (Gibbs),e,6.9928,79.2277,16.8763,3.746582,0.1359099,0.39230886,73.6560,02/02.0/2025,2000,g 15.5,4.0
# From MPEC 2025-AH4
C/2024 A1 (ATLAS),h,06/13.7257/2025,94.4481,112.1401,353.3128,1.001687,3.875314,2000,7.0,4.0
# From MPEC 2025-AE4
C/2024 A2 (ATLAS),e,119.1168,78.1670,295.5384,32.50976,0.0053172,0.94215860,1.4841,02/02.0/2025,2000,g 12.5,4.0
# From MPEC 2025-AE4
C/2024 B1 (Lemmon),h,10/07.7067/2024,70.9040,79.1878,66.2115,1.000905,1.633731,2000,13.0,4.0
# From MPEC 2025-A40
C/2024 B2 (Lemmon),e,99.8532,294.3798,130.3429,3183,0.0000055,0.99871893,0.0000,10/06.0651/2023,2000,g 11.5,4.0
# From MPEC 2024-M41
C/2024 C1 (PANSTARRS),e,14.2269,83.8085,94.4680,10.57340,0.0286670,0.58263837,4.4467,02/02.0/2025,2000,g 11.5,4.0
# From MPEC 2024-JU4
C/2024 C2 (PANSTARRS),e,27.2844,66.4419,87.5496,16.21470,0.0150953,0.44548179,359.4475,02/02.0/2025,2000,g  6.0,4.0
# From MPEC 2024-GJ3
C/2024 C3 (PANSTARRS),e,22.4583,359.7082,159.6649,11.66055,0.0247529,0.42432637,11.1795,02/02.0/2025,2000,g  9.0,4.0
# From MPEC 2024-Q20
C/2024 C4 (ATLAS),e,79.2848,220.6798,321.5064,83.66584,0.0012879,0.98242046,0.0000,01/30.1922/2024,2000,g 14.5,4.0
# From MPEC 2025-AE4
A/2024 D1,e,132.4528,179.6690,125.7690,7798,0.0000014,0.99914156,0.0000,12/03.3235/2027,2000,g 11.0,22.0
# From MPEC 2025-AE4
C/2024 E1 (Wierzchos),h,01/20.7711/2026,75.2382,108.0826,243.6434,1.000038,0.565773,2000,7.0,4.0
# From MPEC 2024-JU4
C/2024 E2 (Bok),e,155.6468,135.6497,358.0845,51.58680,0.0026601,0.85086861,1.2409,02/02.0/2025,2000,g  8.0,4.0
# From MPEC 2025-AH4
P/2024 F1 (PANSTARRS),e,7.0085,251.5213,229.5532,3.445333,0.1541194,0.46017568,71.7247,02/02.0/2025,2000,g 16.0,4.0
# From MPEC 2024-Q20
C/2024 F2 (PANSTARRS),e,13.7419,138.9422,112.8991,9.947329,0.0314155,0.60108442,5.9048,02/02.0/2025,2000,g 11.0,4.0
# From MPEC 2024-UA9
P/2024 FG9 (Nanshan-Hahn),e,1.7313,253.0425,245.9232,3.257126,0.1676688,0.50987016,43.1960,02/02.0/2025,2000,g 14.0,4.0
# From MPEC 2024-PC5
C/2024 G1 (Wierzchos),e,95.3980,30.6024,128.2224,122.4518,0.0007274,0.96790407,0.0756,02/02.0/2025,2000,g 10.0,4.0
# From MPEC 2025-AE4
C/2024 G2 (ATLAS),e,122.1294,171.3931,328.7306,745.8872,0.0000484,0.99282964,0.0000,06/13.4888/2025,2000,g  7.0,4.0
# From MPEC 2025-A40
C/2024 G3 (ATLAS),h,01/13.4283/2025,116.8467,220.3377,108.1225,1.000009,0.093540,2000,9.0,4.0
# From MPEC 2024-P23
C/2024 G4 (PANSTARRS),e,33.0262,152.9877,131.4264,2995,0.0000060,0.99836372,0.0000,03/21.7020/2026,2000,g  8.0,4.0
# From MPEC 2024-JC6
